[{"OBJECT_NAME":"STARLINK-31568","OBJECT_ID":"2024-064Q","EPOCH":"2026-03-09T22:46:14.670624","MEAN_MOTION":15.27578305,"ECCENTRICITY":0.00013174,"INCLINATION":43.0078,"RA_OF_ASC_NODE":54.8624,"ARG_OF_PERICENTER":288.5744,"MEAN_ANOMALY":71.4964,"EPHEMERIS_TYPE":0,"CLASSIFICATION_TYPE":"U","NORAD_CAT_ID":59412,"ELEMENT_SET_NO":999,"REV_AT_EPOCH":10926,"BSTAR":1.8076951e-5,"MEAN_MOTION_DOT":2.35e-6,"MEAN_MOTION_DDOT":0},{"OBJECT_NAME":"FLOCK 4G-22","OBJECT_ID":"2025-009AN","EPOCH":"2026-03-09T22:51:40.689792","MEAN_MOTION":15.2720903,"ECCENTRICITY":8.959e-5,"INCLINATION":97.4046,"RA_OF_ASC_NODE":151.5884,"ARG_OF_PERICENTER":284.1963,"MEAN_ANOMALY":75.9176,"EPHEMERIS_TYPE":0,"CLASSIFICATION_TYPE":"U","NORAD_CAT_ID":62645,"ELEMENT_SET_NO":999,"REV_AT_EPOCH":6376,"BSTAR":0.00049035383,"MEAN_MOTION_DOT":0.00013013,"MEAN_MOTION_DDOT":0}]
